[{"OBJECT_NAME":"STARLINK-1609","OBJECT_ID":"2021-012B","EPOCH":"2026-03-09T23:09:01.681920","MEAN_MOTION":15.30181084,"ECCENTRICITY":0.00015265,"INCLINATION":53.1612,"RA_OF_ASC_NODE":63.6722,"ARG_OF_PERICENTER":85.4135,"MEAN_ANOMALY":274.704,"EPHEMERIS_TYPE":0,"CLASSIFICATION_TYPE":"U","NORAD_CAT_ID":47621,"ELEMENT_SET_NO":999,"REV_AT_EPOCH":28013,"BSTAR":-4.002694e-5,"MEAN_MOTION_DOT":-1.544e-5,"MEAN_MOTION_DDOT":0},{"OBJECT_NAME":"SCS-01 H","OBJECT_ID":"2025-100H","EPOCH":"2026-03-09T23:19:05.376864","MEAN_MOTION":15.31767757,"ECCENTRICITY":0.00071581,"INCLINATION":97.3749,"RA_OF_ASC_NODE":145.8085,"ARG_OF_PERICENTER":277.8492,"MEAN_ANOMALY":82.1937,"EPHEMERIS_TYPE":0,"CLASSIFICATION_TYPE":"U","NORAD_CAT_ID":63989,"ELEMENT_SET_NO":999,"REV_AT_EPOCH":4566,"BSTAR":0.0011436254,"MEAN_MOTION_DOT":0.00035149,"MEAN_MOTION_DDOT":0}]
